O3B FM17                
1 44114U 19020C   26115.34817456 -.00000027  00000+0  00000+0 0  9997
2 44114   0.0342 354.8678 0002609  36.6567 328.4893  5.00115482128886
O3B FM18                
1 44115U 19020D   26115.69426774 -.00000027  00000+0  00000+0 0  9995
2 44115   0.0537   1.5150 0002733  34.2778 324.2238  5.00115236129021
SES-17                  
1 49332U 21095A   26115.91034617 -.00000286  00000+0  00000+0 0  9999
2 49332   0.0254  55.2077 0001041 335.7570  83.5715  1.00269484 17333
SES-22                  
1 52933U 22071A   26115.63725223  .00000090  00000+0  00000+0 0  9996
2 52933   0.0059  58.7892 0000925 330.7420 274.5158  1.00273258  6996
SES-20                  
1 53960U 22123A   26115.90315280  .00000000  00000+0  00000+0 0  9994
2 53960   0.0232 102.8831 0001817 326.4233   6.6513  1.00269407 13009
SES-21                  
1 53961U 22123B   26114.97073317  .00000055  00000+0  00000+0 0  9993
2 53961   0.0251  64.6447 0001317 318.3160  48.5250  1.00272300  6677
O3B MPOWER F1           
1 54755U 22174A   26115.65297668 -.00000027  00000+0  00000+0 0  9994
2 54755   0.0598 347.3990 0005968  66.0147  92.0009  5.00114823 62739
O3B MPOWER F2           
1 54756U 22174B   26115.53887779 -.00000027  00000+0  00000+0 0  9990
2 54756   0.0564 345.0501 0005937  47.5246 327.4601  5.00115368 62802
SES-18                  
1 55970U 23038A   26115.60074394 -.00000115  00000+0  00000+0 0  9996
2 55970   0.0187 258.1103 0001496  71.2169 357.4473  1.00271301 11572
SES-19                  
1 55971U 23038B   26115.68299315  .00000074  00000+0  00000+0 0  9990
2 55971   0.0246 283.8124 0001684 104.3069 296.5575  1.00273486 11564
O3B MPOWER F4           
1 56367U 23059A   26115.80308458 -.00000027  00000+0  00000+0 0  9995
2 56367   0.0649   2.6449 0007250  44.1224 313.2915  5.00115881 55973
O3B MPOWER F3           
1 56368U 23059B   26115.83635555 -.00000027  00000+0  00000+0 0  9990
2 56368   0.0660   2.3880 0006648  34.6963 322.9599  5.00116608 52113
O3B MPOWER F5           
1 58346U 23175A   26115.73718667 -.00000027  00000+0  00000+0 0  9992
2 58346   0.0447  11.7939 0004468  35.0713 313.1704  5.00115556 46810
O3B MPOWER F6           
1 58347U 23175B   26115.83785449 -.00000027  00000+0  00000+0 0  9996
2 58347   0.0513   6.1734 0004729  18.9973 334.8506  5.00116222 45735
ASTRA 1P (SES-24)       
1 60086U 24115A   26114.28743833  .00000105  00000+0  00000+0 0  9999
2 60086   0.0784  43.1438 0003743 261.4150  30.4242  1.00262578  6653
O3B MPOWER F7           
1 62362U 24244A   26115.50434947 -.00000027  00000+0  00000+0 0  9994
2 62362   0.0717 358.2528 0006074  33.8541 327.9284  5.00115165 23891
O3B MPOWER F8           
1 62363U 24244B   26115.67118335 -.00000027  00000+0  00000+0 0  9993
2 62363   0.0331 314.8884 0006298  70.6497 334.4912  5.00115440 18244
